     3.04           N: GNSS NAV DATA    G: GPS              RINEX VERSION / TYPE
sbf2rin-13.4.3                          20200405 000426 UTC PGM / RUN BY / DATE 
GPSA   1.1176E-08  1.4901E-08 -5.9605E-08 -5.9605E-08       IONOSPHERIC CORR    
GPSB   8.8064E+04  1.6384E+04 -1.9661E+05 -1.3107E+05       IONOSPHERIC CORR    
GPUT  0.0000000000E+00 0.000000000E+00 147456 2100          TIME SYSTEM CORR    
    18                                                      LEAP SECONDS        
                                                            END OF HEADER       
G05 2020 04 04 02 00 00-1.024222001433E-05-6.821210263297E-13 0.000000000000E+00
     4.800000000000E+01-1.264062500000E+02 4.791628161975E-09-4.113931661652E-01
    -6.545335054398E-06 5.800736485980E-03 8.190050721169E-06 5.153634624481E+03
     5.256000000000E+05-1.862645149231E-09-1.199487932310E+00 8.940696716309E-08
     9.518876151971E-01 2.137187500000E+02 7.854439483446E-01-8.350704983239E-09
    -3.521575259173E-10 1.000000000000E+00 2.099000000000E+03 0.000000000000E+00
     2.000000000000E+00 0.000000000000E+00-1.117587089539E-08 4.800000000000E+01
     5.184180000000E+05 4.000000000000E+00
G28 2020 04 04 02 00 00 7.280474528670E-04-2.842170943040E-12 0.000000000000E+00
     2.300000000000E+01 8.125000000000E+00 4.131957826914E-09-4.633660519588E-01
     2.924352884293E-07 1.848021650221E-02 1.006573438644E-05 5.153668210983E+03
     5.256000000000E+05-2.495944499969E-07 2.065348512341E+00 9.313225746155E-09
     9.779923277060E-01 2.011875000000E+02-1.411097800699E+00-8.123552664290E-09
    -2.871548182937E-10 1.000000000000E+00 2.099000000000E+03 0.000000000000E+00
     2.000000000000E+00 0.000000000000E+00-1.117587089539E-08 2.300000000000E+01
     5.184180000000E+05 4.000000000000E+00
G07 2020 04 04 02 00 00-2.507097087801E-04-8.640199666843E-12 0.000000000000E+00
     6.800000000000E+01 2.368750000000E+01 4.972707133212E-09 2.202501725575E+00
     1.080334186554E-06 1.354857778642E-02 5.759298801422E-06 5.153672580719E+03
     5.256000000000E+05-2.160668373108E-07 9.368580132453E-01-2.067536115646E-07
     9.534898118550E-01 2.655937500000E+02-2.408623351459E+00-8.223199672131E-09
     2.607251459631E-11 1.000000000000E+00 2.099000000000E+03 0.000000000000E+00
     2.000000000000E+00 0.000000000000E+00-1.117587089539E-08 6.800000000000E+01
     5.184180000000E+05 4.000000000000E+00
G13 2020 04 04 02 00 00-6.565824151039E-07 2.955857780762E-12 0.000000000000E+00
     6.100000000000E+01 1.740625000000E+01 4.178388332360E-09-1.976493153285E+00
     9.294599294662E-07 4.132985020988E-03 1.081824302673E-05 5.153660579681E+03
     5.256000000000E+05 1.136213541031E-07 4.780522236511E-03-4.656612873077E-08
     9.683183649752E-01 1.762812500000E+02 1.121002330544E+00-7.698892118331E-09
     3.660866775510E-10 1.000000000000E+00 2.099000000000E+03 0.000000000000E+00
     2.000000000000E+00 0.000000000000E+00-1.117587089539E-08 6.100000000000E+01
     5.184180000000E+05 4.000000000000E+00
G09 2020 04 04 02 00 00-1.905458047986E-04-7.844391802792E-12 0.000000000000E+00
     9.800000000000E+01 1.256250000000E+01 4.568761735836E-09-8.218898912415E-01
     5.774199962616E-07 1.619778107852E-03 1.117400825024E-05 5.153762748718E+03
     5.256000000000E+05-5.029141902924E-08-1.371992337102E-01 9.126961231232E-08
     9.530998842073E-01 1.599375000000E+02 1.798765251736E+00-7.988904198498E-09
     3.471573176386E-10 1.000000000000E+00 2.099000000000E+03 0.000000000000E+00
     2.800000000000E+00 0.000000000000E+00 1.396983861923E-09 9.800000000000E+01
     5.184180000000E+05 4.000000000000E+00
G08 2020 04 04 02 00 00-2.943584695458E-05-1.364242052659E-12 0.000000000000E+00
     4.500000000000E+01 7.534375000000E+01 4.225175995540E-09-1.022174813387E+00
     3.743916749954E-06 5.325575242750E-03 8.553266525269E-06 5.153651668549E+03
     5.256000000000E+05 9.313225746155E-09 3.004729575048E+00-7.636845111847E-08
     9.701359821720E-01 2.176875000000E+02-1.203661200178E-01-7.984975463422E-09
     2.482246252663E-10 1.000000000000E+00 2.099000000000E+03 0.000000000000E+00
     2.000000000000E+00 0.000000000000E+00 5.122274160385E-09 4.500000000000E+01
     5.184180000000E+05 4.000000000000E+00
G15 2020 04 04 02 00 00-2.404008992016E-04 2.614797267597E-12 0.000000000000E+00
     8.800000000000E+01-9.250000000000E+00 4.942348725805E-09-2.040890674009E+00
    -4.954636096954E-07 1.220751018263E-02 1.144781708717E-05 5.153663429260E+03
     5.256000000000E+05 1.527369022369E-07-2.252582152745E-01-9.685754776001E-08
     9.285965169379E-01 1.399062500000E+02 8.702488910051E-01-7.974975046864E-09
     3.921591921473E-10 1.000000000000E+00 2.099000000000E+03 0.000000000000E+00
     2.000000000000E+00 0.000000000000E+00-1.117587089539E-08 8.800000000000E+01
     5.184180000000E+05 4.000000000000E+00
G17 2020 04 04 01 59 44 2.431008033454E-04 6.139089236967E-12 0.000000000000E+00
     4.400000000000E+01 9.962500000000E+01 3.959093483564E-09-1.274773650937E+00
     5.442649126053E-06 1.326332450844E-02 8.255243301392E-06 5.153686395645E+03
     5.255840000000E+05-6.891787052155E-08 3.076604141757E+00 2.998858690262E-07
     9.843769849669E-01 2.383750000000E+02-1.644637646422E+00-7.950331163205E-09
     2.900120801672E-10 1.000000000000E+00 2.099000000000E+03 0.000000000000E+00
     2.000000000000E+00 0.000000000000E+00-1.117587089539E-08 4.400000000000E+01
     5.193780000000E+05 4.000000000000E+00
G09 2020 04 04 01 59 44-1.905444078147E-04-7.844391802792E-12 0.000000000000E+00
     9.000000000000E+00 1.256250000000E+01 4.568761735836E-09-8.242183140811E-01
     5.774199962616E-07 1.619776943699E-03 1.117400825024E-05 5.153762744904E+03
     5.255840000000E+05-5.029141902924E-08-1.371991152139E-01 9.126961231232E-08
     9.530998929848E-01 1.599375000000E+02 1.798760058376E+00-7.988904198498E-09
     3.471573176386E-10 1.000000000000E+00 2.099000000000E+03 0.000000000000E+00
     2.000000000000E+00 0.000000000000E+00 1.396983861923E-09 9.000000000000E+00
     5.207880000000E+05 4.000000000000E+00
G19 2020 04 04 02 00 00-1.768111251295E-04 5.115907697473E-12 0.000000000000E+00
     9.300000000000E+01 9.090625000000E+01 4.048382917113E-09 1.417251278867E+00
     4.561617970467E-06 9.290594840422E-03 8.258968591690E-06 5.153686054230E+03
     5.256000000000E+05-3.352761268616E-08 3.122292093027E+00-2.440065145493E-07
     9.825176877711E-01 2.329062500000E+02 1.583775236516E+00-7.933901907432E-09
     3.225134339791E-10 1.000000000000E+00 2.099000000000E+03 0.000000000000E+00
     2.000000000000E+00 0.000000000000E+00-1.536682248116E-08 9.300000000000E+01
     5.209380000000E+05 4.000000000000E+00
G24 2020 04 04 01 59 44-1.121917739511E-05-4.547473508865E-13 0.000000000000E+00
     1.400000000000E+01 3.303125000000E+01 5.287005939305E-09-3.130643851380E+00
     1.665204763412E-06 9.592713555321E-03 5.323439836502E-06 5.153650079727E+03
     5.255840000000E+05-5.587935447693E-09 8.655953529837E-01-7.636845111847E-08
     9.368029109729E-01 2.640000000000E+02 6.663317627068E-01-8.341061724415E-09
     1.646497154644E-10 1.000000000000E+00 2.099000000000E+03 0.000000000000E+00
     2.000000000000E+00 0.000000000000E+00 2.793967723846E-09 1.400000000000E+01
     5.222520000000E+05 4.000000000000E+00
G20 2020 04 04 01 59 44 5.278401076794E-04 0.000000000000E+00 0.000000000000E+00
     2.000000000000E+01-1.115937500000E+02 5.272719629937E-09 2.406150398165E+00
    -5.651265382767E-06 5.025459802710E-03 6.366521120071E-06 5.153638677597E+03
     5.255840000000E+05 4.284083843231E-08-1.300499568604E+00 8.195638656616E-08
     9.331784524339E-01 2.438750000000E+02 2.634607988946E+00-8.465709773650E-09
    -3.157274370293E-10 1.000000000000E+00 2.099000000000E+03 0.000000000000E+00
     2.000000000000E+00 0.000000000000E+00-8.847564458847E-09 2.000000000000E+01
     5.248380000000E+05 4.000000000000E+00
G12 2020 04 04 02 00 00 1.332415267825E-04-4.320099833421E-12 0.000000000000E+00
     4.300000000000E+01-1.187500000000E+00 4.022310402516E-09 1.530024385920E+00
    -1.080334186554E-07 8.114027674310E-03 1.026503741741E-05 5.153720357895E+03
     5.256000000000E+05-1.750886440277E-07 2.042706291396E+00-1.024454832077E-07
     9.787221512032E-01 1.896875000000E+02 1.130857816539E+00-7.857827310048E-09
    -4.464471677451E-10 1.000000000000E+00 2.099000000000E+03 0.000000000000E+00
     2.000000000000E+00 0.000000000000E+00-1.257285475731E-08 4.300000000000E+01
     5.250780000000E+05 4.000000000000E+00
G13 2020 04 04 04 00 00-6.346963346004E-07 2.955857780762E-12 0.000000000000E+00
     6.200000000000E+01 1.956250000000E+01 4.349824044774E-09-9.263250820721E-01
     9.331852197647E-07 4.133134498261E-03 1.061148941517E-05 5.153660463333E+03
     5.328000000000E+05-5.587935447693E-09 4.724807001462E-03 1.508742570877E-07
     9.683198030237E-01 1.774375000000E+02 1.121021289962E+00-7.918186967127E-09
     3.025126008641E-10 1.000000000000E+00 2.099000000000E+03 0.000000000000E+00
     2.000000000000E+00 0.000000000000E+00-1.117587089539E-08 6.200000000000E+01
     5.256180000000E+05 4.000000000000E+00
G28 2020 04 04 04 00 00 7.280269637704E-04-2.842170943040E-12 0.000000000000E+00
     2.400000000000E+01 4.062500000000E-01 4.118742990749E-09 5.867801018151E-01
    -5.215406417847E-08 1.847958250437E-02 9.473413228989E-06 5.153667058945E+03
     5.328000000000E+05-1.750886440277E-07 2.065290585174E+00-1.695007085800E-07
     9.779896359368E-01 2.093750000000E+02-1.411061635901E+00-8.145696443810E-09
    -4.246605459591E-10 1.000000000000E+00 2.099000000000E+03 0.000000000000E+00
     2.000000000000E+00 0.000000000000E+00-1.117587089539E-08 2.400000000000E+01
     5.256180000000E+05 4.000000000000E+00
